{
  "type": "FeatureCollection",
  "features": [
    {
      "type": "Feature",
      "properties": {
        "norad_id": 15362,
        "name": "NOVA 3",
        "group": "nnss",
        "lat": -84.208500385308,
        "lon": -100.55429045026456,
        "alt_km": 1163.1678399213724,
        "timestamp": "2025-12-22T11:33:20.707983+00:00",
        "meta_object_name": "NOVA 3",
        "meta_object_id": "1984-110A",
        "meta_epoch": "2025-12-21T18:29:46.288032",
        "meta_mean_motion": 13.23045627,
        "meta_eccentricity": 0.0029975,
        "meta_inclination": 90.122,
        "meta_ra_of_asc_node": 80.641,
        "meta_arg_of_pericenter": 305.9628,
        "meta_mean_anomaly": 174.8273,
        "meta_ephemeris_type": 0,
        "meta_classification_type": "U",
        "meta_norad_cat_id": 15362,
        "meta_element_set_no": 999,
        "meta_rev_at_epoch": 98818,
        "meta_bstar": 0.00018712,
        "meta_mean_motion_dot": 8.7e-07,
        "meta_mean_motion_ddot": 0,
        "tle_line1": "1 15362U 84110A   25355.77067463  .00000087  00000+0  18712-3 0  9997",
        "tle_line2": "2 15362  90.1220  80.6410 0029975 305.9628 174.8273 13.23045627988186"
      },
      "geometry": {
        "type": "Point",
        "coordinates": [
          -100.55429045026456,
          -84.208500385308
        ]
      }
    },
    {
      "type": "Feature",
      "properties": {
        "norad_id": 15935,
        "name": "OSCAR 30",
        "group": "nnss",
        "lat": 82.4776453666757,
        "lon": 98.75222636537022,
        "alt_km": 1001.9234976241687,
        "timestamp": "2025-12-22T11:33:20.707994+00:00",
        "meta_object_name": "OSCAR 30",
        "meta_object_id": "1985-066A",
        "meta_epoch": "2025-12-21T17:45:15.162048",
        "meta_mean_motion": 13.36079647,
        "meta_eccentricity": 0.0169107,
        "meta_inclination": 90.1655,
        "meta_ra_of_asc_node": 99.9943,
        "meta_arg_of_pericenter": 58.7725,
        "meta_mean_anomaly": 57.3386,
        "meta_ephemeris_type": 0,
        "meta_classification_type": "U",
        "meta_norad_cat_id": 15935,
        "meta_element_set_no": 999,
        "meta_rev_at_epoch": 96573,
        "meta_bstar": 0.00015426,
        "meta_mean_motion_dot": 9.6e-07,
        "meta_mean_motion_ddot": 0,
        "tle_line1": "1 15935U 85066A   25355.73975882  .00000096  00000+0  15426-3 0  9992",
        "tle_line2": "2 15935  90.1655  99.9943 0169107  58.7725  57.3386 13.36079647965730"
      },
      "geometry": {
        "type": "Point",
        "coordinates": [
          98.75222636537022,
          82.4776453666757
        ]
      }
    },
    {
      "type": "Feature",
      "properties": {
        "norad_id": 15936,
        "name": "OSCAR 24",
        "group": "nnss",
        "lat": 25.945292654706353,
        "lon": -87.43508285173317,
        "alt_km": 1123.2381327066505,
        "timestamp": "2025-12-22T11:33:20.708004+00:00",
        "meta_object_name": "OSCAR 24",
        "meta_object_id": "1985-066B",
        "meta_epoch": "2025-12-21T21:01:44.436864",
        "meta_mean_motion": 13.35937028,
        "meta_eccentricity": 0.0170233,
        "meta_inclination": 90.1792,
        "meta_ra_of_asc_node": 92.467,
        "meta_arg_of_pericenter": 64.8291,
        "meta_mean_anomaly": 57.8626,
        "meta_ephemeris_type": 0,
        "meta_classification_type": "U",
        "meta_norad_cat_id": 15936,
        "meta_element_set_no": 999,
        "meta_rev_at_epoch": 96765,
        "meta_bstar": 0.00015082,
        "meta_mean_motion_dot": 9.4e-07,
        "meta_mean_motion_ddot": 0,
        "tle_line1": "1 15936U 85066B   25355.87620876  .00000094  00000+0  15082-3 0  9994",
        "tle_line2": "2 15936  90.1792  92.4670 0170233  64.8291  57.8626 13.35937028967656"
      },
      "geometry": {
        "type": "Point",
        "coordinates": [
          -87.43508285173317,
          25.945292654706353
        ]
      }
    },
    {
      "type": "Feature",
      "properties": {
        "norad_id": 17070,
        "name": "POLAR BEAR",
        "group": "nnss",
        "lat": -75.20285832857114,
        "lon": -178.06709270517686,
        "alt_km": 1017.723130472843,
        "timestamp": "2025-12-22T11:33:20.708015+00:00",
        "meta_object_name": "POLAR BEAR",
        "meta_object_id": "1986-088A",
        "meta_epoch": "2025-12-21T18:30:42.261408",
        "meta_mean_motion": 13.752526,
        "meta_eccentricity": 0.0041288,
        "meta_inclination": 89.6171,
        "meta_ra_of_asc_node": 183.4121,
        "meta_arg_of_pericenter": 93.2514,
        "meta_mean_anomaly": 277.8554,
        "meta_ephemeris_type": 0,
        "meta_classification_type": "U",
        "meta_norad_cat_id": 17070,
        "meta_element_set_no": 999,
        "meta_rev_at_epoch": 96103,
        "meta_bstar": 8.9705e-05,
        "meta_mean_motion_dot": 9.8e-07,
        "meta_mean_motion_ddot": 0,
        "tle_line1": "1 17070U 86088A   25355.77132247  .00000098  00000+0  89705-4 0  9997",
        "tle_line2": "2 17070  89.6171 183.4121 0041288  93.2514 277.8554 13.75252600961034"
      },
      "geometry": {
        "type": "Point",
        "coordinates": [
          -178.06709270517686,
          -75.20285832857114
        ]
      }
    },
    {
      "type": "Feature",
      "properties": {
        "norad_id": 18361,
        "name": "OSCAR 27",
        "group": "nnss",
        "lat": -19.884276887515128,
        "lon": -100.49861972019481,
        "alt_km": 1018.9242314693747,
        "timestamp": "2025-12-22T11:33:20.708025+00:00",
        "meta_object_name": "OSCAR 27",
        "meta_object_id": "1987-080A",
        "meta_epoch": "2025-12-22T03:25:18.933600",
        "meta_mean_motion": 13.44908544,
        "meta_eccentricity": 0.0103693,
        "meta_inclination": 90.3738,
        "meta_ra_of_asc_node": 79.624,
        "meta_arg_of_pericenter": 196.6975,
        "meta_mean_anomaly": 163.075,
        "meta_ephemeris_type": 0,
        "meta_classification_type": "U",
        "meta_norad_cat_id": 18361,
        "meta_element_set_no": 999,
        "meta_rev_at_epoch": 87683,
        "meta_bstar": 0.0001761,
        "meta_mean_motion_dot": 1.15e-06,
        "meta_mean_motion_ddot": 0,
        "tle_line1": "1 18361U 87080A   25356.14258025  .00000115  00000+0  17610-3 0  9994",
        "tle_line2": "2 18361  90.3738  79.6240 0103693 196.6975 163.0750 13.44908544876830"
      },
      "geometry": {
        "type": "Point",
        "coordinates": [
          -100.49861972019481,
          -19.884276887515128
        ]
      }
    },
    {
      "type": "Feature",
      "properties": {
        "norad_id": 18362,
        "name": "OSCAR 29",
        "group": "nnss",
        "lat": -15.467771365719221,
        "lon": -100.00749181130013,
        "alt_km": 1025.7793494374755,
        "timestamp": "2025-12-22T11:33:20.708050+00:00",
        "meta_object_name": "OSCAR 29",
        "meta_object_id": "1987-080B",
        "meta_epoch": "2025-12-22T03:31:04.950048",
        "meta_mean_motion": 13.44450135,
        "meta_eccentricity": 0.0104522,
        "meta_inclination": 90.375,
        "meta_ra_of_asc_node": 80.0838,
        "meta_arg_of_pericenter": 219.9115,
        "meta_mean_anomaly": 155.9322,
        "meta_ephemeris_type": 0,
        "meta_classification_type": "U",
        "meta_norad_cat_id": 18362,
        "meta_element_set_no": 999,
        "meta_rev_at_epoch": 87636,
        "meta_bstar": 0.0001781,
        "meta_mean_motion_dot": 1.15e-06,
        "meta_mean_motion_ddot": 0,
        "tle_line1": "1 18362U 87080B   25356.14658507  .00000115  00000+0  17810-3 0  9996",
        "tle_line2": "2 18362  90.3750  80.0838 0104522 219.9115 155.9322 13.44450135876362"
      },
      "geometry": {
        "type": "Point",
        "coordinates": [
          -100.00749181130013,
          -15.467771365719221
        ]
      }
    },
    {
      "type": "Feature",
      "properties": {
        "norad_id": 19070,
        "name": "OSCAR 23",
        "group": "nnss",
        "lat": 73.88178115726451,
        "lon": -162.19661621150044,
        "alt_km": 1048.5764242416635,
        "timestamp": "2025-12-22T11:33:20.708064+00:00",
        "meta_object_name": "OSCAR 23",
        "meta_object_id": "1988-033A",
        "meta_epoch": "2025-12-22T02:04:42.087072",
        "meta_mean_motion": 13.27788655,
        "meta_eccentricity": 0.019028,
        "meta_inclination": 90.3203,
        "meta_ra_of_asc_node": 16.682,
        "meta_arg_of_pericenter": 153.9822,
        "meta_mean_anomaly": 227.1802,
        "meta_ephemeris_type": 0,
        "meta_classification_type": "U",
        "meta_norad_cat_id": 19070,
        "meta_element_set_no": 999,
        "meta_rev_at_epoch": 82377,
        "meta_bstar": 0.00012926,
        "meta_mean_motion_dot": 7.4e-07,
        "meta_mean_motion_ddot": 0,
        "tle_line1": "1 19070U 88033A   25356.08659823  .00000074  00000+0  12926-3 0  9994",
        "tle_line2": "2 19070  90.3203  16.6820 0190280 153.9822 227.1802 13.27788655823770"
      },
      "geometry": {
        "type": "Point",
        "coordinates": [
          -162.19661621150044,
          73.88178115726451
        ]
      }
    }
  ]
}